NORAD_CAT_ID,OBJECT_NAME,OBJECT_TYPE,EPOCH,MEAN_MOTION,ECCENTRICITY,INCLINATION,RA_OF_ASC_NODE,ARG_OF_PERICENTER,MEAN_ANOMALY,BSTAR,MEAN_MOTION_DOT,MEAN_MOTION_DDOT,TLE_LINE0,TLE_LINE1,TLE_LINE2,SEMIMAJOR_AXIS,PERIOD,APOGEE,PERIGEE,DECAYED
54056.0,STARLINK-5226,PAYLOAD,2023-06-07 18:36:05,15.08838869,8.86e-05,53.2154,179.9449,87.2613,272.8481,7.393e-05,8.89e-06,0.0,0 STARLINK-5226,1 54056U 22136F   23158.77506487  .00000889  00000-0  73930-4 0  9998,2 54056  53.2154 179.9449 0000886  87.2613 272.8481 15.08838869 34986,6917.884,95.438,540.362,539.136,0.0
54056.0,STARLINK-5226,PAYLOAD,2023-06-07 23:22:15,15.08834934,9.32e-05,53.2155,179.0529,87.3289,272.781,3.4861e-05,2.67e-06,0.0,0 STARLINK-5226,1 54056U 22136F   23158.97378911  .00000267  00000-0  34861-4 0  9999,2 54056  53.2155 179.0529 0000932  87.3289 272.7810 15.08834934 35490,6917.896,95.438,540.406,539.116,0.0
54056.0,STARLINK-5226,PAYLOAD,2023-06-08 10:29:57,15.08836311,9.39e-05,53.2155,176.9713,86.4424,273.6675,3.9418e-05,3.4e-06,0.0,0 STARLINK-5226,1 54056U 22136F   23159.43746932  .00000340  00000-0  39418-4 0  9998,2 54056  53.2155 176.9713 0000939  86.4424 273.6675 15.08836311 35084,6917.892,95.438,540.406,539.107,0.0
54056.0,STARLINK-5226,PAYLOAD,2023-06-09 10:20:43,15.08843624,9.74e-05,53.2157,172.5112,83.855,276.2553,4.7471e-05,4.68e-06,0.0,0 STARLINK-5226,1 54056U 22136F   23160.43106462  .00000468  00000-0  47471-4 0  9997,2 54056  53.2157 172.5112 0000974  83.8550 276.2553 15.08843624 35710,6917.869,95.437,540.408,539.061,0.0
54056.0,STARLINK-5226,PAYLOAD,2023-06-10 00:39:12,15.08836033,9.48e-05,53.2156,169.8343,85.5108,274.5992,4.9814e-05,5.05e-06,0.0,0 STARLINK-5226,1 54056U 22136F   23161.02722903  .00000505  00000-0  49814-4 0  9992,2 54056  53.2156 169.8343 0000948  85.5108 274.5992 15.08836033 35807,6917.893,95.438,540.413,539.102,0.0
54056.0,STARLINK-5226,PAYLOAD,2023-06-10 07:00:45,15.08837149,9.59e-05,53.2158,168.645,84.7373,275.3728,5.4648e-05,5.82e-06,0.0,0 STARLINK-5226,1 54056U 22136F   23161.29218885  .00000582  00000-0  54648-4 0  9996,2 54056  53.2158 168.6450 0000959  84.7373 275.3728 15.08837149 35368,6917.889,95.438,540.418,539.091,0.0
54056.0,STARLINK-5226,PAYLOAD,2023-06-11 10:02:18,15.08843,0.0001016,53.2161,163.5899,83.8146,276.2961,3.8248e-05,3.21e-06,0.0,0 STARLINK-5226,1 54056U 22136F   23162.41826588  .00000321  00000-0  38248-4 0  9995,2 54056  53.2161 163.5899 0001016  83.8146 276.2961 15.08843000 36011,6917.871,95.437,540.439,539.033,0.0
54056.0,STARLINK-5226,PAYLOAD,2023-06-12 06:42:19,15.0883736,9.99e-05,53.216,159.7237,82.1518,277.9588,3.3155e-05,2.4e-06,0.0,0 STARLINK-5226,1 54056U 22136F   23163.27939003  .00000240  00000-0  33155-4 0  9999,2 54056  53.2160 159.7237 0000999  82.1518 277.9588 15.08837360 36146,6917.888,95.438,540.445,539.062,0.0
54056.0,STARLINK-5226,PAYLOAD,2023-06-12 16:14:38,15.08837522,9.95e-05,53.216,157.9397,79.9419,280.1685,2.8577e-05,1.67e-06,0.0,0 STARLINK-5226,1 54056U 22136F   23163.67683068  .00000167  00000-0  28577-4 0  9990,2 54056  53.2160 157.9397 0000995  79.9419 280.1685 15.08837522 35720,6917.888,95.438,540.441,539.065,0.0
54056.0,STARLINK-5226,PAYLOAD,2023-06-13 00:11:33,15.08837744,0.0001022,53.216,156.4527,80.385,279.7258,1.4907e-05,-5.1e-07,0.0,0 STARLINK-5226,1 54056U 22136F   23164.00803168 -.00000051  00000-0  14907-4 0  9998,2 54056  53.2160 156.4527 0001022  80.3850 279.7258 15.08837744 35777,6917.887,95.438,540.459,539.045,0.0
54056.0,STARLINK-5226,PAYLOAD,2023-06-13 04:57:43,15.08838156,0.000105,53.2161,155.5606,80.9819,279.1292,1.7382e-05,-1.1e-07,0.0,0 STARLINK-5226,1 54056U 22136F   23164.20675133 -.00000011  00000-0  17382-4 0  9995,2 54056  53.2161 155.5606 0001050  80.9819 279.1292 15.08838156 35802,6917.886,95.438,540.477,539.025,0.0
54056.0,STARLINK-5226,PAYLOAD,2023-06-14 00:02:21,15.08836326,0.0001022,53.216,151.993,82.3587,277.7522,2.3714e-05,9e-07,0.0,0 STARLINK-5226,1 54056U 22136F   23165.00163366  .00000090  00000-0  23714-4 0  9996,2 54056  53.2160 151.9930 0001022  82.3587 277.7522 15.08836326 36402,6917.892,95.438,540.464,539.05,0.0
54056.0,STARLINK-5226,PAYLOAD,2023-06-14 07:59:16,15.08838218,0.000103,53.2161,150.5063,81.9714,278.1395,3.7906e-05,3.16e-06,0.0,0 STARLINK-5226,1 54056U 22136F   23165.33283276  .00000316  00000-0  37906-4 0  9994,2 54056  53.2161 150.5063 0001030  81.9714 278.1395 15.08838218 35977,6917.886,95.438,540.463,539.038,0.0
54056.0,STARLINK-5226,PAYLOAD,2023-06-14 15:56:12,15.08835475,0.0001032,53.2161,149.0195,82.6225,277.4884,2.6492e-05,1.34e-06,0.0,0 STARLINK-5226,1 54056U 22136F   23165.66403545  .00000134  00000-0  26492-4 0  9999,2 54056  53.2161 149.0195 0001032  82.6225 277.4884 15.08835475 36027,6917.894,95.438,540.473,539.045,0.0
54056.0,STARLINK-5226,PAYLOAD,2023-06-15 03:03:54,15.0883592,0.0001043,53.2162,146.938,88.8633,271.2479,2.8319e-05,1.63e-06,0.0,0 STARLINK-5226,1 54056U 22136F   23166.12771611  .00000163  00000-0  28319-4 0  9995,2 54056  53.2162 146.9380 0001043  88.8633 271.2479 15.08835920 36570,6917.893,95.438,540.479,539.036,0.0
54056.0,STARLINK-5226,PAYLOAD,2023-06-15 07:50:04,15.08837418,0.0001043,53.2162,146.0459,87.9262,272.185,3.2809e-05,2.34e-06,0.0,0 STARLINK-5226,1 54056U 22136F   23166.32643543  .00000234  00000-0  32809-4 0  9997,2 54056  53.2162 146.0459 0001043  87.9262 272.1850 15.08837418 36124,6917.888,95.438,540.475,539.032,0.0
54056.0,STARLINK-5226,PAYLOAD,2023-06-15 15:46:59,15.08837847,0.0001035,53.2163,144.5591,88.5644,271.5467,5.1245e-05,5.28e-06,0.0,0 STARLINK-5226,1 54056U 22136F   23166.65763511  .00000528  00000-0  51245-4 0  9992,2 54056  53.2163 144.5591 0001035  88.5644 271.5467 15.08837847 36175,6917.887,95.438,540.468,539.036,0.0
54056.0,STARLINK-5226,PAYLOAD,2023-06-16 06:05:27,15.08845385,0.0001064,53.2163,141.8828,88.6318,271.4796,9.4595e-05,1.218e-05,0.0,0 STARLINK-5226,1 54056U 22136F   23167.25378932  .00001218  00000-0  94595-4 0  9990,2 54056  53.2163 141.8828 0001064  88.6318 271.4796 15.08845385 36742,6917.864,95.437,540.465,538.993,0.0
54056.0,STARLINK-5226,PAYLOAD,2023-06-16 15:37:46,15.08839691,0.0001045,53.2163,140.0982,88.1308,271.9803,4.3795e-05,4.09e-06,0.0,0 STARLINK-5226,1 54056U 22136F   23167.65123385  .00000409  00000-0  43795-4 0  9991,2 54056  53.2163 140.0982 0001045  88.1308 271.9803 15.08839691 36801,6917.881,95.438,540.469,539.023,0.0
54056.0,STARLINK-5226,PAYLOAD,2023-06-17 07:31:37,15.08842346,0.0001108,53.2161,137.1238,88.9843,271.1276,7.0712e-05,8.38e-06,0.0,0 STARLINK-5226,1 54056U 22136F   23168.31363124  .00000838  00000-0  70712-4 0  9997,2 54056  53.2161 137.1238 0001108  88.9843 271.1276 15.08842346 36427,6917.873,95.437,540.505,538.972,0.0
54056.0,STARLINK-5226,PAYLOAD,2023-06-17 15:28:33,15.08837086,0.0001128,53.2163,135.6365,90.2849,269.8273,1.1781e-05,-1e-06,0.0,0 STARLINK-5226,1 54056U 22136F   23168.64483622 -.00000100  00000-0  11781-4 0  9993,2 54056  53.2163 135.6365 0001128  90.2849 269.8273 15.08837086 36478,6917.889,95.438,540.535,538.974,0.0
54056.0,STARLINK-5226,PAYLOAD,2023-06-18 01:00:52,15.08834321,0.0001159,53.2164,133.8525,90.0935,270.019,-2.8187e-05,-7.36e-06,0.0,0 STARLINK-5226,1 54056U 22136F   23169.04227993 -.00000736  00000-0 -28187-4 0  9999,2 54056  53.2164 133.8525 0001159  90.0935 270.0190 15.08834321 37017,6917.898,95.438,540.565,538.961,0.0
54056.0,STARLINK-5226,PAYLOAD,2023-06-18 07:22:25,15.0883907,0.0001155,53.2164,132.6627,93.0855,267.0269,-3.1416e-05,-7.88e-06,0.0,0 STARLINK-5226,1 54056U 22136F   23169.30723717 -.00000788  00000-0 -31416-4 0  9999,2 54056  53.2164 132.6627 0001155  93.0855 267.0269 15.08839070 36576,6917.883,95.438,540.547,538.949,0.0
54056.0,STARLINK-5226,PAYLOAD,2023-06-19 04:02:25,15.08840977,0.0001175,53.2168,128.7975,90.0577,270.055,4.6037e-05,4.45e-06,0.0,0 STARLINK-5226,1 54056U 22136F   23170.16835388  .00000445  00000-0  46037-4 0  9996,2 54056  53.2168 128.7975 0001175  90.0577 270.0550 15.08840977 37185,6917.877,95.437,540.555,538.93,0.0
54056.0,STARLINK-5226,PAYLOAD,2023-06-20 03:53:12,15.08838178,0.0001105,53.2166,124.3372,89.9454,270.1665,8.1472e-05,1.009e-05,0.0,0 STARLINK-5226,1 54056U 22136F   23171.16195598  .00001009  00000-0  81472-4 0  9998,2 54056  53.2166 124.3372 0001105  89.9454 270.1665 15.08838178 36851,6917.886,95.438,540.515,538.987,0.0
54056.0,STARLINK-5226,PAYLOAD,2023-06-20 13:25:31,15.08838136,0.0001046,53.2163,122.553,85.1897,274.9215,3.8158e-05,3.2e-06,0.0,0 STARLINK-5226,1 54056U 22136F   23171.55939780  .00000320  00000-0  38158-4 0  9998,2 54056  53.2163 122.5530 0001046  85.1897 274.9215 15.08838136 37394,6917.886,95.438,540.475,539.027,0.0
54056.0,STARLINK-5226,PAYLOAD,2023-06-20 21:22:28,15.08836101,0.0001141,53.217,121.0685,95.2002,264.912,-6.6242e-05,-1.342e-05,0.0,0 STARLINK-5226,1 54056U 22136F   23171.89060456 -.00001342  00000-0 -66242-4 0  9992,2 54056  53.2170 121.0685 0001141  95.2002 264.9120 15.08836101 36969,6917.892,95.438,540.547,538.968,0.0
54056.0,STARLINK-5226,PAYLOAD,2023-06-21 13:16:19,15.08834149,0.0001192,53.218,118.0957,95.5897,264.5231,-6.3441e-05,-1.297e-05,0.0,0 STARLINK-5226,1 54056U 22136F   23172.55300698 -.00001297  00000-0 -63441-4 0  9998,2 54056  53.2180 118.0957 0001192  95.5897 264.5231 15.08834149 37060,6917.898,95.438,540.588,538.939,0.0
54056.0,STARLINK-5226,PAYLOAD,2023-06-22 01:59:24,15.08853653,0.0001086,53.2176,115.7166,97.5484,262.5631,-0.00023168,-3.974e-05,0.0,0 STARLINK-5226,1 54056U 22136F   23173.08292387 -.00003974  00000-0 -23168-3 0  9997,2 54056  53.2176 115.7166 0001086  97.5484 262.5631 15.08853653 37622,6917.839,95.437,540.455,538.952,0.0
54056.0,STARLINK-5226,PAYLOAD,2023-06-23 01:50:11,15.0883986,0.0001256,53.2173,111.2548,87.9734,272.1402,9.0316e-05,1.15e-05,0.0,0 STARLINK-5226,1 54056U 22136F   23174.07652351  .00001150  00000-0  90316-4 0  9990,2 54056  53.2173 111.2548 0001256  87.9734 272.1402 15.08839860 37777,6917.881,95.438,540.615,538.877,0.0
